$$SOE
2460147.500000000, A.D. 2023-Jul-22 00:00:00.0000, 2.129423222538792E+08, -2.065450321406297E+08, -2.679191754321593E+07,
2460154.500000000, A.D. 2023-Jul-29 00:00:00.0000, 2.218002444118905E+08, -1.954029116174239E+08, -2.825581148626753E+07,
2460161.500000000, A.D. 2023-Aug-05 00:00:00.0000, 2.302470042139762E+08, -1.838985902259305E+08, -2.966732384077393E+07,
2460168.500000000, A.D. 2023-Aug-12 00:00:00.0000, 2.382635633896100E+08, -1.720506828550949E+08, -3.102340229737905E+07,
2460175.500000000, A.D. 2023-Aug-19 00:00:00.0000, 2.458320490052788E+08, -1.598792249929273E+08, -3.232113600587329E+07,
2460182.500000000, A.D. 2023-Aug-26 00:00:00.0000, 2.529358905754630E+08, -1.474055748353233E+08, -3.355777692687874E+07,
2460189.500000000, A.D. 2023-Sep-02 00:00:00.0000, 2.595599461155139E+08, -1.346522984844409E+08, -3.473075990869644E+07,
2460196.500000000, A.D. 2023-Sep-09 00:00:00.0000, 2.656906147104024E+08, -1.216430398023931E+08, -3.583772111064287E+07,
2460203.500000000, A.D. 2023-Sep-16 00:00:00.0000, 2.713159335891634E+08, -1.084023769397888E+08, -3.687651444452833E+07,
2460210.500000000, A.D. 2023-Sep-23 00:00:00.0000, 2.764256582965277E+08, -9.495566759380832E+07, -3.784522574833962E+07,
2460217.500000000, A.D. 2023-Sep-30 00:00:00.0000, 2.810113242173508E+08, -8.132888445128126E+07, -3.874218431962046E+07,
2460224.500000000, A.D. 2023-Oct-07 00:00:00.0000, 2.850662861548478E+08, -6.754844422250839E+07, -3.956597145593716E+07,
2460231.500000000, A.D. 2023-Oct-14 00:00:00.0000, 2.885857365341189E+08, -5.364103654536040E+07, -4.031542625256497E+07,
2460238.500000000, A.D. 2023-Oct-21 00:00:00.0000, 2.915667054905186E+08, -3.963345412001811E+07, -4.098964877500549E+07,
2460245.500000000, A.D. 2023-Oct-28 00:00:00.0000, 2.940080419487150E+08, -2.555242468819270E+07, -4.158800031492968E+07,
2460252.500000000, A.D. 2023-Nov-04 00:00:00.0000, 2.959103754323445E+08, -1.142444832593342E+07, -4.211010077055600E+07,
2460259.500000000, A.D. 2023-Nov-11 00:00:00.0000, 2.972760601744674E+08, 2.724356907843946E+06, -4.255582337171145E+07,
2460266.500000000, A.D. 2023-Nov-18 00:00:00.0000, 2.981091034772205E+08, 1.686839878180506E+07, -4.292528698379310E+07,
2460273.500000000, A.D. 2023-Nov-25 00:00:00.0000, 2.984150803831546E+08, 3.098274243094100E+07, -4.321884624826285E+07,
2460280.500000000, A.D. 2023-Dec-02 00:00:00.0000, 2.982010368565252E+08, 4.504322825500327E+07, -4.343707984899464E+07,
2460287.500000000, A.D. 2023-Dec-09 00:00:00.0000, 2.974753838225202E+08, 5.902657516542874E+07, -4.358077722406504E+07,
2460294.500000000, A.D. 2023-Dec-16 00:00:00.0000, 2.962477846435019E+08, 7.291046863658360E+07, -4.365092406646337E+07,
2460301.500000000, A.D. 2023-Dec-23 00:00:00.0000, 2.945290386159033E+08, 8.667363406623513E+07, -4.364868690583730E+07,
2460308.500000000, A.D. 2023-Dec-30 00:00:00.0000, 2.923309612712317E+08, 1.002958966641291E+08, -4.357539686817641E+07,
2460315.500000000, A.D. 2024-Jan-06 00:00:00.0000, 2.896662616935520E+08, 1.137582259812116E+08, -4.343253293636614E+07,
2460322.500000000, A.D. 2024-Jan-13 00:00:00.0000, 2.865484218144107E+08, 1.270427639841060E+08, -4.322170542010491E+07,
2460329.500000000, A.D. 2024-Jan-20 00:00:00.0000, 2.829915804612836E+08, 1.401328406733286E+08, -4.294463973357687E+07,
2460336.500000000, A.D. 2024-Jan-27 00:00:00.0000, 2.790104214528078E+08, 1.530129789684623E+08, -4.260316044928529E+07,
2460343.500000000, A.D. 2024-Feb-03 00:00:00.0000, 2.746200664018346E+08, 1.656688890849085E+08, -4.219917584301256E+07,
2460350.500000000, A.D. 2024-Feb-10 00:00:00.0000, 2.698359733607370E+08, 1.780874533411970E+08, -4.173466312372313E+07,
2460357.500000000, A.D. 2024-Feb-17 00:00:00.0000, 2.646738420834196E+08, 1.902567026532457E+08, -4.121165447366214E+07,
2460364.500000000, A.D. 2024-Feb-24 00:00:00.0000, 2.591495263716261E+08, 2.021657859640329E+08, -4.063222398438454E+07,
2460371.500000000, A.D. 2024-Mar-02 00:00:00.0000, 2.532789537832094E+08, 2.138049337678941E+08, -3.999847555068286E+07,
2460378.500000000, A.D. 2024-Mar-09 00:00:00.0000, 2.470780529293309E+08, 2.251654167954152E+08, -3.931253177290097E+07,
2460385.500000000, A.D. 2024-Mar-16 00:00:00.0000, 2.405626887086575E+08, 2.362395011057464E+08, -3.857652389977477E+07,
2460392.500000000, A.D. 2024-Mar-23 00:00:00.0000, 2.337486052132269E+08, 2.470204016501849E+08, -3.779258270540565E+07,
2460399.500000000, A.D. 2024-Mar-30 00:00:00.0000, 2.266513738026713E+08, 2.575022351371398E+08, -3.696283007367455E+07,
2460406.500000000, A.D. 2024-Apr-06 00:00:00.0000, 2.192863462740790E+08, 2.676799696024714E+08, -3.608937155527242E+07,
2460413.500000000, A.D. 2024-Apr-13 00:00:00.0000, 2.116686163090847E+08, 2.775493721924965E+08, -3.517429011454977E+07,
2460420.500000000, A.D. 2024-Apr-20 00:00:00.0000, 2.038129878324367E+08, 2.871069584031991E+08, -3.421964071071064E+07,
2460427.500000000, A.D. 2024-Apr-27 00:00:00.0000, 1.957339483265831E+08, 2.963499426955592E+08, -3.322744556545700E+07,
2460434.500000000, A.D. 2024-May-04 00:00:00.0000, 1.874456467453261E+08, 3.052761901844943E+08, -3.219969012598409E+07,
2460441.500000000, A.D. 2024-May-11 00:00:00.0000, 1.789618758221506E+08, 3.138841696241142E+08, -3.113831969582526E+07,
2460448.500000000, A.D. 2024-May-18 00:00:00.0000, 1.702960584216550E+08, 3.221729079654821E+08, -3.004523668150665E+07,
2460455.500000000, A.D. 2024-May-25 00:00:00.0000, 1.614612375398124E+08, 3.301419466709970E+08, -2.892229840073453E+07,
2460462.500000000, A.D. 2024-Jun-01 00:00:00.0000, 1.524700696114388E+08, 3.377912998631355E+08, -2.777131540644684E+07,
2460469.500000000, A.D. 2024-Jun-08 00:00:00.0000, 1.433348209890812E+08, 3.451214143733317E+08, -2.659405029744418E+07,
2460476.500000000, A.D. 2024-Jun-15 00:00:00.0000, 1.340673676338756E+08, 3.521331322895640E+08, -2.539221695733719E+07,
2460483.500000000, A.D. 2024-Jun-22 00:00:00.0000, 1.246791966830511E+08, 3.588276572011216E+08, -2.416747998734061E+07,
2460490.500000000, A.D. 2024-Jun-29 00:00:00.0000, 1.151814074687069E+08, 3.652065223127415E+08, -2.292145424369895E+07,
2460497.500000000, A.D. 2024-Jul-06 00:00:00.0000, 1.055847143553365E+08, 3.712715579337696E+08, -2.165570488461062E+07,
2460504.500000000, A.D. 2024-Jul-13 00:00:00.0000, 9.589945310192829E+07, 3.770248611262410E+08, -2.037174783968942E+07,
2460511.500000000, A.D. 2024-Jul-20 00:00:00.0000, 8.613558854240231E+07, 3.824687685954184E+08, -1.907105039291388E+07,
2460518.500000000, A.D. 2024-Jul-27 00:00:00.0000, 7.630272272586654E+07, 3.876058317859747E+08, -1.775503186663145E+07,
2460525.500000000, A.D. 2024-Aug-03 00:00:00.0000, 6.641010360825989E+07, 3.924387937259709E+08, -1.642506443492027E+07,
2460532.500000000, A.D. 2024-Aug-10 00:00:00.0000, 5.646663430050794E+07, 3.969705675269455E+08, -1.508247405760281E+07,
2460539.500000000, A.D. 2024-Aug-17 00:00:00.0000, 4.648088277898804E+07, 4.012042164717678E+08, -1.372854151597184E+07,
2460546.500000000, A.D. 2024-Aug-24 00:00:00.0000, 3.646109196212169E+07, 4.051429355765910E+08, -1.236450353562194E+07,
2460553.500000000, A.D. 2024-Aug-31 00:00:00.0000, 2.641519016057624E+07, 4.087900344739667E+08, -1.099155399531490E+07,
2460560.500000000, A.D. 2024-Sep-07 00:00:00.0000, 1.635080217266088E+07, 4.121489216534065E+08, -9.610845230456203E+06,
2460567.500000000, A.D. 2024-Sep-14 00:00:00.0000, 6.275261029535914E+06, 4.152230909682800E+08, -8.223489345005453E+06,
2460574.500000000, A.D. 2024-Sep-21 00:00:00.0000, -3.804381705532415E+06, 4.180161107365099E+08, -6.830559301204115E+06,
2460581.500000000, A.D. 2024-Sep-28 00:00:00.0000, -1.388134762885312E+07, 4.205316121200947E+08, -5.433089996243715E+06,
2460588.500000000, A.D. 2024-Oct-05 00:00:00.0000, -2.394912156181797E+07, 4.227732767047681E+08, -4.032079653672040E+06,
2460595.500000000, A.D. 2024-Oct-12 00:00:00.0000, -3.400144039178460E+07, 4.247448261885474E+08, -2.628491246270716E+06,
2460602.500000000, A.D. 2024-Oct-19 00:00:00.0000, -4.403228247093399E+07, 4.264500138364967E+08, -1.223253806078851E+06,
2460609.500000000, A.D. 2024-Oct-26 00:00:00.0000, -5.403585763256966E+07, 4.278926168309482E+08, 1.827363211351037E+05,
2460616.500000000, A.D. 2024-Nov-02 00:00:00.0000, -6.400659758948302E+07, 4.290764293044960E+08, 1.588614245550394E+06,
2460623.500000000, A.D. 2024-Nov-09 00:00:00.0000, -7.393914663467936E+07, 4.300052560165827E+08, 2.993545323489219E+06,
2460630.500000000, A.D. 2024-Nov-16 00:00:00.0000, -8.382835263110667E+07, 4.306829066179675E+08, 4.396723968660057E+06,
2460637.500000000, A.D. 2024-Nov-23 00:00:00.0000, -9.366925825233535E+07, 4.311131904008683E+08, 5.797372478398234E+06,
2460644.500000000, A.D. 2024-Nov-30 00:00:00.0000, -1.034570922717252E+08, 4.312999114433309E+08, 7.194739854170561E+06,
2460651.500000000, A.D. 2024-Dec-07 00:00:00.0000, -1.131872604840914E+08, 4.312468645232997E+08, 8.588100613699347E+06,
2460658.500000000, A.D. 2024-Dec-14 00:00:00.0000, -1.228553369497263E+08, 4.309578329856026E+08, 9.976753758928299E+06,
2460665.500000000, A.D. 2024-Dec-21 00:00:00.0000, -1.324570578767539E+08, 4.304365872831428E+08, 1.136002201174739E+07,
2460672.500000000, A.D. 2024-Dec-28 00:00:00.0000, -1.419883161648582E+08, 4.296868811855776E+08, 1.273725089467362E+07,
2460679.500000000, A.D. 2025-Jan-04 00:00:00.0000, -1.514451540111034E+08, 4.287124479966209E+08, 1.410780761289665E+07,
2460686.500000000, A.D. 2025-Jan-11 00:00:00.0000, -1.608237553947953E+08, 4.275169984112247E+08, 1.547108004031831E+07,
2460693.500000000, A.D. 2025-Jan-18 00:00:00.0000, -1.701204393512654E+08, 4.261042190654232E+08, 1.682647581839919E+07,
2460700.500000000, A.D. 2025-Jan-25 00:00:00.0000, -1.793316537841844E+08, 4.244777712770056E+08, 1.817342150644591E+07,
2460707.500000000, A.D. 2025-Feb-01 00:00:00.0000, -1.884539696198207E+08, 4.226412899223129E+08, 1.951136176313946E+07,
2460714.500000000, A.D. 2025-Feb-08 00:00:00.0000, -1.974840752369948E+08, 4.205983824464029E+08, 2.083975855507904E+07,
$$EOE